FLOCK 4G-2              
1 62661U 25009BE  26068.66207492  .00013752  00000+0  51068-3 0  9995
2 62661  97.4044 151.2221 0003181 329.2677  30.8376 15.27675260121321
STARLINK-36083          
1 66857U 25281K   26068.17580273  .00035151  00000+0  12797-2 0  9997
2 66857  43.0038 346.6606 0001277 277.8070  82.2637 15.27607923 16109
